#aV2024 12 31  0  0  0.00000000     288 DD+AD WGS84 FIT  NGA
## 2347 172800.00000000   300.00000000 60675 0.0000000000000
+   31     2  3  4  5  6  7  8  9 10 11 12 13 14 15 16 17 18
+         19 20 21 22 23 24 25 26 27 28 29 30 31 32  0  0  0
+          0  0  0  0  0  0  0  0  0  0  0  0  0  0  0  0  0
+          0  0  0  0  0  0  0  0  0  0  0  0  0  0  0  0  0
+          0  0  0  0  0  0  0  0  0  0  0  0  0  0  0  0  0
++         2  2  2  2  2  2  2  2  2  2  2  2  2  2  2  2  2
++         2  2  2  2  2  2  2  2  2  2  2  2  2  2  0  0  0
++         0  0  0  0  0  0  0  0  0  0  0  0  0  0  0  0  0
++         0  0  0  0  0  0  0  0  0  0  0  0  0  0  0  0  0
++         0  0  0  0  0  0  0  0  0  0  0  0  0  0  0  0  0
%c cc cc ccc ccc cccc cccc cccc cccc ccccc ccccc ccccc ccccc
%c cc cc ccc ccc cccc cccc cccc cccc ccccc ccccc ccccc ccccc
%f  0.0000000  0.000000000  0.00000000000  0.000000000000000
%f  0.0000000  0.000000000  0.00000000000  0.000000000000000
%i    0    0    0    0      0      0      0      0         0
%i    0    0    0    0      0      0      0      0         0
/*      NGA, ST. LOUIS,MO.                                  
/*   EPHEMERIS COMPUTED FROM 2 DAYS OF DATA                 
/*   EPOCHA v9 SMOOTHER                                     
/*   G2296 IERS2010 SATIGS SATAPC                           
*  2024 12 31 23 55  0.00000000
P  2  16905.995966   2850.568621  20850.576845   -278.715627                    
V  2   9434.351264  23492.897354 -10732.999797      0.090294                    
P  3  20519.911603  -8963.193530  14030.117524    636.904969                    
V  3 -10885.030548  14546.198430  25028.531768      0.079769                    
P  4  25013.465070   -411.575367  -9131.224408    504.886121                    
V  4  10703.840203   4933.918683  28890.936456      0.060012                    
P  5 -14688.257653  -5233.682861 -21685.087589   -197.688671                    
V  5  16673.636462 -21328.086486  -6133.631306     -0.011225                    
P  6  -5171.839458 -25662.922192   4153.111411    -85.987366                    
V  6   3432.813134   4357.838000  31877.452582     -0.276369                    
P  7   9780.538732 -14450.001416 -19358.051032    -14.122029                    
V  7   9753.454257  24075.321967 -13136.828124      0.006947                    
P  8  26002.060926   6098.705952  -2482.166983    451.265446                    
V  8  -3365.929699   2214.529850 -31016.938303      0.083103                    
P  9  19713.070792  -7899.427919 -16089.017100    510.527710                    
V  9  19590.838710   5367.012993  21424.633866      0.155089                    
P 10  -6817.667505  21480.018570  14011.654900   -257.685298                    
V 10 -12924.308662  11895.589247 -25262.782497     -0.159022                    
P 11 -12178.032332 -22135.378252  -8250.753308   -752.548729                    
V 11   -518.064982 -10775.636362  29468.467061      0.004283                    
P 12 -20614.835077   4830.798365  15719.186220   -561.781329                    
V 12  13207.205999 -15823.544819  21829.110557     -0.022664                    
P 13 -21054.719824 -13965.609223  -8812.428369    691.966979                    
V 13  10814.514172   1785.168703 -29216.400437      0.013041                    
P 14  10236.702823 -22090.982205  10369.419614    571.301509                    
V 14  11256.521801  -7581.462995 -27620.356144      0.073778                    
P 15 -26384.260287  -3038.523688  -2575.227782    246.291868                    
V 15   2790.290035  -3242.892407 -30927.799556      0.045028                    
P 16  10635.901783  11127.527676 -22000.157479    -89.125497                    
V 16 -19812.797717  18478.374575    209.896174      0.094814                    
P 17   4385.163936 -14655.439890  22124.459807    494.704604                    
V 17  26184.404712   6964.477842   -385.871511     -0.168351                    
P 18  -8188.851723  16710.873348 -18830.221719   -659.247995                    
V 18  -8451.510370 -22526.031704 -16506.352126      0.009586                    
P 19  -7607.221805 -16486.034018  19393.943638    580.733255                    
V 19  23932.033356   6482.164037  14365.401960      0.046539                    
P 20  -6582.924031 -16222.538841 -19925.200748    367.431754                    
V 20  14174.103889 -21186.552323  12380.282323     -0.003135                    
P 21  17977.877506  10435.956380  17509.563673     99.433789                    
V 21   7623.276690  19680.557963 -18899.138041      0.017873                    
P 22   4283.092801 -20399.514416  17023.195543    -89.792387                    
V 22  16162.656121 -13124.859082 -19951.382031     -0.022001                    
P 23 -16750.130047  20441.803013    547.287624    394.874670                    
V 23  -2196.719478  -1007.397432 -32370.621225      0.075806                    
P 24 -17628.713556  -5245.907869  18827.328898   -468.489332                    
V 24  -8763.816221 -23324.125549 -13955.044206      0.035996                    
P 25 -19581.021805  16673.019063   5689.653274    497.397183                    
V 25   2468.630929  -8079.624451  30531.891805     -0.005247                    
P 26   2600.953803  19218.061470 -18165.673084    -30.306118                    
V 26 -15434.569726  17116.729644  16451.683341     -0.147877                    
P 27  19990.818856  12877.058363 -12580.357114    -33.610791                    
V 27 -15419.462314  -1013.813485 -25751.982798      0.004305                    
P 28   4807.885943  25401.538525   6075.017471   -523.614725                    
V 28  -5207.167638  -6325.441838  30499.454589     -0.101230                    
P 29 -20072.601781   6028.044554 -16433.389385   -551.127507                    
V 29 -19480.368031  -7230.749603  21079.122828      0.032611                    
P 30   1499.571759 -23416.657860 -12032.108666   -249.123754                    
V 30   8055.281380  13826.562649 -25852.391025      0.082923                    
P 31  10319.165091  23974.924471  -3948.436436   -218.846498                    
V 31  -1728.376600   5521.595888  31303.821178      0.008062                    
P 32   1423.157112  15614.637399  21691.096339   -549.650418                    
V 32 -26529.482755  -4834.635223   5075.043776      0.065335                    
EOF
